[{"OBJECT_NAME":"STARLINK-31052","OBJECT_ID":"2023-200M","EPOCH":"2026-03-09T08:20:36.658464","MEAN_MOTION":15.26746351,"ECCENTRICITY":0.00015874,"INCLINATION":43.0019,"RA_OF_ASC_NODE":170.3452,"ARG_OF_PERICENTER":237.1277,"MEAN_ANOMALY":122.9422,"EPHEMERIS_TYPE":0,"CLASSIFICATION_TYPE":"U","NORAD_CAT_ID":58600,"ELEMENT_SET_NO":999,"REV_AT_EPOCH":12356,"BSTAR":0.00017619186,"MEAN_MOTION_DOT":4.47e-5,"MEAN_MOTION_DDOT":0},{"OBJECT_NAME":"KIRARI (OICETS)","OBJECT_ID":"2005-031A","EPOCH":"2026-03-09T15:02:18.043872","MEAN_MOTION":15.22934858,"ECCENTRICITY":0.0019783,"INCLINATION":98.0768,"RA_OF_ASC_NODE":316.1697,"ARG_OF_PERICENTER":5.9068,"MEAN_ANOMALY":354.2396,"EPHEMERIS_TYPE":0,"CLASSIFICATION_TYPE":"U","NORAD_CAT_ID":28809,"ELEMENT_SET_NO":999,"REV_AT_EPOCH":12344,"BSTAR":0.00027776,"MEAN_MOTION_DOT":6.472e-5,"MEAN_MOTION_DDOT":0}]
